<?xml version="1.0" encoding="UTF-8"?>
<ndm xmlns:xsi="http://www.w3.org/2001/XMLSchema-instance" xsi:noNamespaceSchemaLocation="https://sanaregistry.org/r/ndmxml_unqualified/ndmxml-2.0.0-master-2.0.xsd">
<omm id="CCSDS_OMM_VERS" version="2.0">
<header><CREATION_DATE/><ORIGINATOR/></header><body><segment><metadata><OBJECT_NAME>ONEWEB-0229</OBJECT_NAME><OBJECT_ID>2021-045N</OBJECT_ID><CENTER_NAME>EARTH</CENTER_NAME><REF_FRAME>TEME</REF_FRAME><TIME_SYSTEM>UTC</TIME_SYSTEM><MEAN_ELEMENT_THEORY>SGP4</MEAN_ELEMENT_THEORY></metadata><data><meanElements><EPOCH>2025-02-26T13:13:55.560000</EPOCH><MEAN_MOTION>13.15549339</MEAN_MOTION><ECCENTRICITY>.0001937</ECCENTRICITY><INCLINATION>87.9132</INCLINATION><RA_OF_ASC_NODE>353.9261</RA_OF_ASC_NODE><ARG_OF_PERICENTER>84.2212</ARG_OF_PERICENTER><MEAN_ANOMALY>275.9139</MEAN_ANOMALY></meanElements><tleParameters><EPHEMERIS_TYPE>0</EPHEMERIS_TYPE><CLASSIFICATION_TYPE>U</CLASSIFICATION_TYPE><NORAD_CAT_ID>48779</NORAD_CAT_ID><ELEMENT_SET_NO>999</ELEMENT_SET_NO><REV_AT_EPOCH>18187</REV_AT_EPOCH><BSTAR>-.68419E-4</BSTAR><MEAN_MOTION_DOT>-.13E-6</MEAN_MOTION_DOT><MEAN_MOTION_DDOT>0</MEAN_MOTION_DDOT></tleParameters></data></segment></body></omm>
<omm id="CCSDS_OMM_VERS" version="2.0">
<header><CREATION_DATE/><ORIGINATOR/></header><body><segment><metadata><OBJECT_NAME>ONEWEB-0228</OBJECT_NAME><OBJECT_ID>2021-045P</OBJECT_ID><CENTER_NAME>EARTH</CENTER_NAME><REF_FRAME>TEME</REF_FRAME><TIME_SYSTEM>UTC</TIME_SYSTEM><MEAN_ELEMENT_THEORY>SGP4</MEAN_ELEMENT_THEORY></metadata><data><meanElements><EPOCH>2025-02-26T14:01:38.119872</EPOCH><MEAN_MOTION>13.15315291</MEAN_MOTION><ECCENTRICITY>.0001907</ECCENTRICITY><INCLINATION>87.9129</INCLINATION><RA_OF_ASC_NODE>353.8972</RA_OF_ASC_NODE><ARG_OF_PERICENTER>81.8180</ARG_OF_PERICENTER><MEAN_ANOMALY>278.3167</MEAN_ANOMALY></meanElements><tleParameters><EPHEMERIS_TYPE>0</EPHEMERIS_TYPE><CLASSIFICATION_TYPE>U</CLASSIFICATION_TYPE><NORAD_CAT_ID>48780</NORAD_CAT_ID><ELEMENT_SET_NO>999</ELEMENT_SET_NO><REV_AT_EPOCH>18179</REV_AT_EPOCH><BSTAR>.50792E-3</BSTAR><MEAN_MOTION_DOT>.203E-5</MEAN_MOTION_DOT><MEAN_MOTION_DDOT>0</MEAN_MOTION_DDOT></tleParameters></data></segment></body></omm>
<omm id="CCSDS_OMM_VERS" version="2.0">
<header><CREATION_DATE/><ORIGINATOR/></header><body><segment><metadata><OBJECT_NAME>ONEWEB-0232</OBJECT_NAME><OBJECT_ID>2021-045Q</OBJECT_ID><CENTER_NAME>EARTH</CENTER_NAME><REF_FRAME>TEME</REF_FRAME><TIME_SYSTEM>UTC</TIME_SYSTEM><MEAN_ELEMENT_THEORY>SGP4</MEAN_ELEMENT_THEORY></metadata><data><meanElements><EPOCH>2025-02-26T13:25:19.562016</EPOCH><MEAN_MOTION>13.15550890</MEAN_MOTION><ECCENTRICITY>.0001857</ECCENTRICITY><INCLINATION>87.9122</INCLINATION><RA_OF_ASC_NODE>353.9039</RA_OF_ASC_NODE><ARG_OF_PERICENTER>80.8685</ARG_OF_PERICENTER><MEAN_ANOMALY>279.2655</MEAN_ANOMALY></meanElements><tleParameters><EPHEMERIS_TYPE>0</EPHEMERIS_TYPE><CLASSIFICATION_TYPE>U</CLASSIFICATION_TYPE><NORAD_CAT_ID>48781</NORAD_CAT_ID><ELEMENT_SET_NO>999</ELEMENT_SET_NO><REV_AT_EPOCH>18211</REV_AT_EPOCH><BSTAR>.14187E-3</BSTAR><MEAN_MOTION_DOT>.66E-6</MEAN_MOTION_DOT><MEAN_MOTION_DDOT>0</MEAN_MOTION_DDOT></tleParameters></data></segment></body></omm>
<omm id="CCSDS_OMM_VERS" version="2.0">
<header><CREATION_DATE/><ORIGINATOR/></header><body><segment><metadata><OBJECT_NAME>ONEWEB-0231</OBJECT_NAME><OBJECT_ID>2021-045R</OBJECT_ID><CENTER_NAME>EARTH</CENTER_NAME><REF_FRAME>TEME</REF_FRAME><TIME_SYSTEM>UTC</TIME_SYSTEM><MEAN_ELEMENT_THEORY>SGP4</MEAN_ELEMENT_THEORY></metadata><data><meanElements><EPOCH>2025-02-26T18:21:57.568896</EPOCH><MEAN_MOTION>13.15548784</MEAN_MOTION><ECCENTRICITY>.0002083</ECCENTRICITY><INCLINATION>87.9118</INCLINATION><RA_OF_ASC_NODE>353.9240</RA_OF_ASC_NODE><ARG_OF_PERICENTER>83.2128</ARG_OF_PERICENTER><MEAN_ANOMALY>276.9239</MEAN_ANOMALY></meanElements><tleParameters><EPHEMERIS_TYPE>0</EPHEMERIS_TYPE><CLASSIFICATION_TYPE>U</CLASSIFICATION_TYPE><NORAD_CAT_ID>48782</NORAD_CAT_ID><ELEMENT_SET_NO>999</ELEMENT_SET_NO><REV_AT_EPOCH>18183</REV_AT_EPOCH><BSTAR>-.27659E-3</BSTAR><MEAN_MOTION_DOT>-.91E-6</MEAN_MOTION_DOT><MEAN_MOTION_DDOT>0</MEAN_MOTION_DDOT></tleParameters></data></segment></body></omm>
<omm id="CCSDS_OMM_VERS" version="2.0">
<header><CREATION_DATE/><ORIGINATOR/></header><body><segment><metadata><OBJECT_NAME>ONEWEB-0234</OBJECT_NAME><OBJECT_ID>2021-045S</OBJECT_ID><CENTER_NAME>EARTH</CENTER_NAME><REF_FRAME>TEME</REF_FRAME><TIME_SYSTEM>UTC</TIME_SYSTEM><MEAN_ELEMENT_THEORY>SGP4</MEAN_ELEMENT_THEORY></metadata><data><meanElements><EPOCH>2025-02-26T18:50:28.708800</EPOCH><MEAN_MOTION>13.15549219</MEAN_MOTION><ECCENTRICITY>.000184</ECCENTRICITY><INCLINATION>87.9132</INCLINATION><RA_OF_ASC_NODE>353.8672</RA_OF_ASC_NODE><ARG_OF_PERICENTER>40.2918</ARG_OF_PERICENTER><MEAN_ANOMALY>319.8349</MEAN_ANOMALY></meanElements><tleParameters><EPHEMERIS_TYPE>0</EPHEMERIS_TYPE><CLASSIFICATION_TYPE>U</CLASSIFICATION_TYPE><NORAD_CAT_ID>48783</NORAD_CAT_ID><ELEMENT_SET_NO>999</ELEMENT_SET_NO><REV_AT_EPOCH>18197</REV_AT_EPOCH><BSTAR>.14945E-3</BSTAR><MEAN_MOTION_DOT>.69E-6</MEAN_MOTION_DOT><MEAN_MOTION_DDOT>0</MEAN_MOTION_DDOT></tleParameters></data></segment></body></omm>
<omm id="CCSDS_OMM_VERS" version="2.0">
<header><CREATION_DATE/><ORIGINATOR/></header><body><segment><metadata><OBJECT_NAME>ONEWEB-0238</OBJECT_NAME><OBJECT_ID>2021-045T</OBJECT_ID><CENTER_NAME>EARTH</CENTER_NAME><REF_FRAME>TEME</REF_FRAME><TIME_SYSTEM>UTC</TIME_SYSTEM><MEAN_ELEMENT_THEORY>SGP4</MEAN_ELEMENT_THEORY></metadata><data><meanElements><EPOCH>2025-02-26T12:15:44.457408</EPOCH><MEAN_MOTION>13.15548415</MEAN_MOTION><ECCENTRICITY>.0001775</ECCENTRICITY><INCLINATION>87.9130</INCLINATION><RA_OF_ASC_NODE>353.9377</RA_OF_ASC_NODE><ARG_OF_PERICENTER>75.3392</ARG_OF_PERICENTER><MEAN_ANOMALY>284.7935</MEAN_ANOMALY></meanElements><tleParameters><EPHEMERIS_TYPE>0</EPHEMERIS_TYPE><CLASSIFICATION_TYPE>U</CLASSIFICATION_TYPE><NORAD_CAT_ID>48784</NORAD_CAT_ID><ELEMENT_SET_NO>999</ELEMENT_SET_NO><REV_AT_EPOCH>18183</REV_AT_EPOCH><BSTAR>.4277E-3</BSTAR><MEAN_MOTION_DOT>.174E-5</MEAN_MOTION_DOT><MEAN_MOTION_DDOT>0</MEAN_MOTION_DDOT></tleParameters></data></segment></body></omm>
<omm id="CCSDS_OMM_VERS" version="2.0">
<header><CREATION_DATE/><ORIGINATOR/></header><body><segment><metadata><OBJECT_NAME>ONEWEB-0240</OBJECT_NAME><OBJECT_ID>2021-045U</OBJECT_ID><CENTER_NAME>EARTH</CENTER_NAME><REF_FRAME>TEME</REF_FRAME><TIME_SYSTEM>UTC</TIME_SYSTEM><MEAN_ELEMENT_THEORY>SGP4</MEAN_ELEMENT_THEORY></metadata><data><meanElements><EPOCH>2025-02-26T17:57:59.284512</EPOCH><MEAN_MOTION>13.15552090</MEAN_MOTION><ECCENTRICITY>.0002224</ECCENTRICITY><INCLINATION>87.9130</INCLINATION><RA_OF_ASC_NODE>353.8567</RA_OF_ASC_NODE><ARG_OF_PERICENTER>75.5683</ARG_OF_PERICENTER><MEAN_ANOMALY>284.5694</MEAN_ANOMALY></meanElements><tleParameters><EPHEMERIS_TYPE>0</EPHEMERIS_TYPE><CLASSIFICATION_TYPE>U</CLASSIFICATION_TYPE><NORAD_CAT_ID>48785</NORAD_CAT_ID><ELEMENT_SET_NO>999</ELEMENT_SET_NO><REV_AT_EPOCH>18189</REV_AT_EPOCH><BSTAR>.1484E-3</BSTAR><MEAN_MOTION_DOT>.69E-6</MEAN_MOTION_DOT><MEAN_MOTION_DDOT>0</MEAN_MOTION_DDOT></tleParameters></data></segment></body></omm>
<omm id="CCSDS_OMM_VERS" version="2.0">
<header><CREATION_DATE/><ORIGINATOR/></header><body><segment><metadata><OBJECT_NAME>ONEWEB-0246</OBJECT_NAME><OBJECT_ID>2021-045V</OBJECT_ID><CENTER_NAME>EARTH</CENTER_NAME><REF_FRAME>TEME</REF_FRAME><TIME_SYSTEM>UTC</TIME_SYSTEM><MEAN_ELEMENT_THEORY>SGP4</MEAN_ELEMENT_THEORY></metadata><data><meanElements><EPOCH>2025-02-26T12:21:26.591904</EPOCH><MEAN_MOTION>13.15548216</MEAN_MOTION><ECCENTRICITY>.0001886</ECCENTRICITY><INCLINATION>87.9132</INCLINATION><RA_OF_ASC_NODE>353.9115</RA_OF_ASC_NODE><ARG_OF_PERICENTER>83.6147</ARG_OF_PERICENTER><MEAN_ANOMALY>276.5199</MEAN_ANOMALY></meanElements><tleParameters><EPHEMERIS_TYPE>0</EPHEMERIS_TYPE><CLASSIFICATION_TYPE>U</CLASSIFICATION_TYPE><NORAD_CAT_ID>48786</NORAD_CAT_ID><ELEMENT_SET_NO>999</ELEMENT_SET_NO><REV_AT_EPOCH>18173</REV_AT_EPOCH><BSTAR>.3142E-3</BSTAR><MEAN_MOTION_DOT>.131E-5</MEAN_MOTION_DOT><MEAN_MOTION_DDOT>0</MEAN_MOTION_DDOT></tleParameters></data></segment></body></omm>

</ndm>
