ONEWEB-0229             
1 48779U 21045N   25057.55133750 -.00000013  00000+0 -68419-4 0  9992
2 48779  87.9132 353.9261 0001937  84.2212 275.9139 13.15549339181879
ONEWEB-0228             
1 48780U 21045P   25057.58446898  .00000203  00000+0  50792-3 0  9990
2 48780  87.9129 353.8972 0001907  81.8180 278.3167 13.15315291181796
ONEWEB-0232             
1 48781U 21045Q   25057.55925419  .00000066  00000+0  14187-3 0  9994
2 48781  87.9122 353.9039 0001857  80.8685 279.2655 13.15550890182113
ONEWEB-0231             
1 48782U 21045R   25057.76524964 -.00000091  00000+0 -27659-3 0  9996
2 48782  87.9118 353.9240 0002083  83.2128 276.9239 13.15548784181833
ONEWEB-0234             
1 48783U 21045S   25057.78505450  .00000069  00000+0  14945-3 0  9995
2 48783  87.9132 353.8672 0001840  40.2918 319.8349 13.15549219181976
ONEWEB-0238             
1 48784U 21045T   25057.51093122  .00000174  00000+0  42770-3 0  9999
2 48784  87.9130 353.9377 0001775  75.3392 284.7935 13.15548415181833
ONEWEB-0240             
1 48785U 21045U   25057.74860283  .00000069  00000+0  14840-3 0  9995
2 48785  87.9130 353.8567 0002224  75.5683 284.5694 13.15552090181899
ONEWEB-0246             
1 48786U 21045V   25057.51489111  .00000131  00000+0  31420-3 0  9991
2 48786  87.9132 353.9115 0001886  83.6147 276.5199 13.15548216181739
